STARLINK-31131          
1 58673U 23211G   24043.58334491 -.00792794  00000+0 -21537-1 0  9996
2 58673  43.0009  20.0969 0001669 261.9228  85.8614 15.39518290  5960
STARLINK-31124          
1 58674U 23211H   24043.43498090  .00004958  00000+0  19920-3 0  9998
2 58674  43.0021  29.4752 0001378 262.7040  97.3655 15.25917208  6888
STARLINK-31126          
1 58675U 23211J   24043.44628826  .00002046  00000+0  88049-4 0  9997
2 58675  42.9992  29.5519 0001642 236.9826 123.0867 15.25913115  6880
STARLINK-31066          
1 58676U 23211K   24043.36257195  .00004339  00000+0  17546-3 0  9996
2 58676  43.0022  28.8985 0001042 288.2444  71.8294 15.25943470  8160
STARLINK-31058          
1 58677U 23211L   24043.36726291  .00010687  00000+0  41774-3 0  9998
2 58677  43.0045  29.8267 0001928 275.3902  84.6729 15.25913865  6875
STARLINK-31125          
1 58678U 23211M   24043.39652923 -.00002071  00000+0 -69364-4 0  9998
2 58678  42.9991  29.1722 0001322 246.7540 113.3172 15.25911137  8055
STARLINK-31110          
1 58679U 23211N   24043.42592780  .00005100  00000+0  20460-3 0  9994
2 58679  43.0028  29.4055 0001664 256.7545 103.3121 15.25924689  6884
STARLINK-31112          
1 58680U 23211P   24043.15958225 -.00000672  00000+0 -15848-4 0  9992
2 58680  43.0032  30.8414 0001311 262.4225  97.6477 15.25898712  8028
STARLINK-31147          
1 58681U 23211Q   24043.42366801  .00002117  00000+0  90720-4 0  9992
2 58681  43.0025  29.3867 0001633 239.8451 120.2238 15.25917374  6888
STARLINK-31144          
1 58682U 23211R   24043.39426994  .00000291  00000+0  20966-4 0  9995
2 58682  42.9989  29.1532 0001137 239.9959 120.0779 15.25905598  8162
STARLINK-31095          
1 58683U 23211S   24043.35142861  .00001715  00000+0  75400-4 0  9995
2 58683  43.0026  29.7024 0001429 255.9718 104.0975 15.25910445  8149
STARLINK-31107          
1 58684U 23211T   24043.34235480  .00004240  00000+0  17168-3 0  9997
2 58684  43.0020  29.6291 0000700 267.1950  92.8821 15.25937212  6876
STARLINK-31121          
1 58685U 23211U   24043.40105527 -.00001391  00000+0 -43341-4 0  9992
2 58685  42.9995  29.2038 0001164 243.7766 116.2966 15.25903354  6883
STARLINK-31137          
1 58686U 23211V   24043.39200745  .00000036  00000+0  11200-4 0  9991
2 58686  42.9989  29.1386 0001071 262.5098  97.5631 15.25908540  6888
STARLINK-31109          
1 58687U 23211W   24043.58334491  .00126962  00000+0  11694-2 0  9991
2 58687  43.0007  21.2403 0004231 182.8021  78.7659 15.66483937  6060
STARLINK-31139          
1 58688U 23211X   24043.40558405  .00000334  00000+0  22619-4 0  9991
2 58688  43.0001  29.2436 0001395 261.7504  98.3189 15.25892718  6882
STARLINK-31106          
1 58689U 23211Y   24043.34688307  .00004133  00000+0  16759-3 0  9998
2 58689  43.0037  29.6671 0001374 258.7114 101.3583 15.25939729  6873
STARLINK-11072          
1 58705U 24002A   24043.41428492 -.00000219  00000+0  30645-5 0  9995
2 58705  53.1596  49.6802 0002335 125.4053 234.7184 15.69722715  7559
STARLINK-11075          
1 58706U 24002B   24043.41205623 -.00013075  00000+0 -10342-3 0  9990
2 58706  53.1595  49.6600 0001962 130.1947 229.9242 15.69662972  7554
STARLINK-11077          
1 58707U 24002C   24043.40741835  .00049310  00000+0  41047-3 0  9995
2 58707  53.1570  49.6197 0001719  73.7350 286.3856 15.69649056  7555
STARLINK-11079          
1 58708U 24002D   24043.40242095 -.00050062  00000+0 -41147-3 0  9999
2 58708  53.1577  49.5983 0002401  70.8409 289.2868 15.69668776  7552
STARLINK-11076          
1 58709U 24002E   24043.44141330  .00105928  00000+0  86359-3 0  9998
2 58709  53.1573  49.1354 0001820  52.5277 307.5906 15.69834454  7567
STARLINK-11078          
1 58710U 24002F   24043.44368426  .00005149  00000+0  47445-4 0  9995
2 58710  53.1579  49.1436 0001782  93.9542 266.1680 15.69654467  7560
STARLINK-31031          
1 58711U 24002G   24043.45041218  .00036211  00000+0  13110-2 0  9998
2 58711  53.1590  57.8232 0001958 113.4375 246.6831 15.28084760  7447
STARLINK-31029          
1 58712U 24002H   24043.41775871  .00059520  00000+0  21401-2 0  9994
2 58712  53.1593  58.3256 0002136 108.6482 251.4750 15.28083463  7439
STARLINK-30973          
1 58713U 24002J   24043.41741326  .00017889  00000+0  65612-3 0  9998
2 58713  53.1592  58.3227 0001918 121.8045 238.3142 15.28061168  7433
STARLINK-31100          
1 58714U 24002K   24043.41309175 -.00015436  00000+0 -54588-3 0  9999
2 58714  53.1591  58.2991 0002995  90.3280 269.8063 15.28007415  7433
STARLINK-31102          
1 58715U 24002L   24043.34733098  .00049113  00000+0  17704-2 0  9992
2 58715  53.1603  58.5935 0002374 102.8198 257.3068 15.28086754  7426
STARLINK-31098          
1 58716U 24002M   24043.27758855  .00016163  00000+0  59426-3 0  9990
2 58716  53.1581  58.8725 0003010  89.3263 270.8081 15.28055103  7410
STARLINK-31093          
1 58717U 24002N   24043.45474663  .00011175  00000+0  41504-3 0  9999
2 58717  53.1609  57.8506 0001976 102.5060 257.6161 15.28055927  7449
STARLINK-31097          
1 58718U 24002P   24043.33831144  .00041399  00000+0  14967-2 0  9991
2 58718  53.1579  58.5395 0002196  93.8087 266.3164 15.28068451  7420
STARLINK-31051          
1 58719U 24002Q   24043.27257409  .00012538  00000+0  46438-3 0  9993
2 58719  53.1586  58.8527 0002848  26.9021 333.2126 15.28030639  7269
STARLINK-31027          
1 58720U 24002R   24043.26822758  .00046100  00000+0  16642-2 0  9994
2 58720  53.1577  58.8140 0002179  98.9862 261.1385 15.28068223  7414
STARLINK-30972          
1 58721U 24002S   24043.26788827  .00026758  00000+0  97402-3 0  9994
2 58721  53.1602  58.8277 0002747 105.3500 254.7804 15.28059094  7418
STARLINK-31040          
1 58722U 24002T   24043.32895107  .00032069  00000+0  11637-2 0  9999
2 58722  53.1576  58.4774 0002171  86.3861 273.7387 15.28067899  7426
STARLINK-31033          
1 58723U 24002U   24043.31926975  .00014918  00000+0  55082-3 0  9993
2 58723  53.1579  58.4184 0001525 112.1746 247.9416 15.27981327  7423
STARLINK-30893          
1 58724U 24002V   24043.45944757 -.00002267  00000+0 -69248-4 0  9993
2 58724  53.1594  57.8809 0001401 105.2080 254.9075 15.28001501  7444
STARLINK-30856          
1 58725U 24002W   24043.32428477  .00033781  00000+0  12240-2 0  9997
2 58725  53.1584  58.4587 0002221 104.5447 255.5799 15.28091306  7424
STARLINK-31155          
1 58728U 24005A   24043.29165041  .00012812  00000+0  52342-3 0  9994
2 58728  43.0002  13.9059 0001031 221.5198 138.5575 15.24293499  6706
STARLINK-31115          
1 58729U 24005B   24043.35433734  .00035222  00000+0  14149-2 0  9991
2 58729  43.0003  13.5189 0001279 234.4837 125.5895 15.24340930  6619
STARLINK-31150          
1 58730U 24005C   24042.39626992  .00271174  00000+0  15460-2 0  9991
2 58730  42.9997  13.0741 0002493 214.4108 145.6601 15.77358130  6547
STARLINK-31204          
1 58731U 24005D   24043.08653050 -.00000217  00000+0  14522-5 0  9994
2 58731  42.9998  14.9432 0002262 213.7446 146.3260 15.24249412  6584
STARLINK-31180          
1 58732U 24005E   24043.41131033  .00021222  00000+0  85911-3 0  9990
2 58732  43.0003  13.0839 0001434 237.7799 122.2912 15.24303996  6622
STARLINK-31164          
1 58733U 24005F   24043.34294875  .00000980  00000+0  49527-4 0  9999
2 58733  43.0008  13.4315 0001689 234.4524 125.6169 15.24252090  6611
STARLINK-31152          
1 58734U 24005G   24043.40564164 -.00008118  00000+0 -31665-3 0  9994
2 58734  42.9996  13.0391 0001397 236.6030 123.4687 15.24222581  6633
STARLINK-31157          
1 58735U 24005H   24043.40278783  .00111120  00000+0  44102-2 0  9999
2 58735  43.0016  13.0199 0001223 240.8730 119.1998 15.24234368  6630
STARLINK-31076          
1 58736U 24005J   24043.33438715  .00019777  00000+0  80163-3 0  9998
2 58736  43.0014  13.3648 0001415 255.6455 104.4238 15.24296914  6664
STARLINK-31101          
1 58737U 24005K   24043.32867601  .00012120  00000+0  49563-3 0  9992
2 58737  43.0014  13.3246 0001501 284.8801  75.1883 15.24300978  6615
STARLINK-31108          
1 58738U 24005L   24043.39708432  .00052228  00000+0  20909-2 0  9991
2 58738  43.0014  12.9805 0001368 268.2682  91.8011 15.24299343  6628
STARLINK-31042          
1 58739U 24005M   24043.32585924  .00009246  00000+0  38123-3 0  9994
2 58739  43.0016  13.3031 0001824 269.2531  90.8110 15.24250693  6622
STARLINK-31159          
1 58740U 24005N   24043.32301228 -.00014244  00000+0 -56326-3 0  9990
2 58740  43.0015  13.2806 0001211 231.3434 128.7308 15.24254287  6717
STARLINK-31148          
1 58741U 24005P   24043.32016034 -.00006024  00000+0 -23219-3 0  9991
2 58741  43.0029  14.1254 0001212 276.9200  83.1513 15.24236898  6616
STARLINK-31151          
1 58742U 24005Q   24043.31728074  .00008669  00000+0  35754-3 0  9997
2 58742  43.0020  14.1024 0001269 255.8280 104.2429 15.24303202  6704
STARLINK-31156          
1 58743U 24005R   24043.31446164  .00000653  00000+0  36422-4 0  9994
2 58743  43.0016  14.0827 0001205 257.3660 102.7056 15.24248676  6666
STARLINK-31167          
1 58744U 24005S   24043.31159769  .00025076  00000+0  10127-2 0  9995
2 58744  43.0024  14.0576 0001006 258.7460 101.3277 15.24305416  6665
STARLINK-31176          
1 58745U 24005T   24043.37428815 -.00001639  00000+0 -55716-4 0  9999
2 58745  43.0018  13.6683 0001469 257.8959 102.1727 15.24249828  6662
STARLINK-31181          
1 58746U 24005U   24043.36005487  .00000917  00000+0  47030-4 0  9991
2 58746  43.0001  13.5434 0001670 247.4316 112.6357 15.24241853  6670
STARLINK-31183          
1 58747U 24005V   24043.37143595  .00000440  00000+0  27842-4 0  9996
2 58747  43.0014  13.6456 0001610 240.4963 119.5726 15.24250532  6721
STARLINK-31165          
1 58748U 24005W   24043.30304865  .00014374  00000+0  58594-3 0  9997
2 58748  43.0001  13.9917 0000894 257.1699 102.9051 15.24289537  6619
